start=new Date('2022-02-01T00:00:00.000Z').valueOf();
sats=[{"ARG_OF_PERICENTER":"83.4859","OBJECT_ID":"2020-057M","SITE":"AFETR","TLE_LINE2":"2 46128  53.0548 160.7806 0001926  83.4859 276.6349 15.06404647 80867","REF_FRAME":"TEME","MEAN_ANOMALY":"276.6349","ELEMENT_SET_NO":"999","CLASSIFICATION_TYPE":"U","FILE":"3288814","EPOCH":"2022-01-31T19:55:50.563776","INCLINATION":"53.0548","MEAN_ELEMENT_THEORY":"SGP4","MEAN_MOTION_DOT":"-0.00000436","MEAN_MOTION":"15.06404647","ECCENTRICITY":"0.00019260","CENTER_NAME":"EARTH","OBJECT_NAME":"STARLINK-1622","NORAD_CAT_ID":"46128","OBJECT_TYPE":"PAYLOAD","COUNTRY_CODE":"US","RA_OF_ASC_NODE":"160.7806","MEAN_MOTION_DDOT":"0.0000000000000","RCS_SIZE":"LARGE","DECAY_DATE":null,"GP_ID":"195051744","TIME_SYSTEM":"UTC","PERIOD":"95.592","EPHEMERIS_TYPE":"0","TLE_LINE1":"1 46128U 20057M   22031.83044634 -.00000436  00000-0 -10382-4 0  9998","REV_AT_EPOCH":"8086","LAUNCH_DATE":"2020-08-18","PERIAPSIS":"545.865","SEMIMAJOR_AXIS":"6925.334","BSTAR":"-0.00001038200000","APOAPSIS":"548.533"},{"SEMIMAJOR_AXIS":"6925.356","BSTAR":"0.00000962900000","APOAPSIS":"548.227","TLE_LINE1":"1 46129U 20057N   22031.87098361 -.00000138  00000-0  96290-5 0  9990","EPHEMERIS_TYPE":"0","REV_AT_EPOCH":"8087","LAUNCH_DATE":"2020-08-18","PERIAPSIS":"546.216","DECAY_DATE":null,"GP_ID":"195051992","TIME_SYSTEM":"UTC","PERIOD":"95.592","RA_OF_ASC_NODE":"160.5969","MEAN_MOTION_DDOT":"0.0000000000000","RCS_SIZE":"LARGE","OBJECT_NAME":"STARLINK-1623","CENTER_NAME":"EARTH","NORAD_CAT_ID":"46129","COUNTRY_CODE":"US","OBJECT_TYPE":"PAYLOAD","MEAN_ELEMENT_THEORY":"SGP4","INCLINATION":"53.0540","EPOCH":"2022-01-31T20:54:12.983904","MEAN_MOTION_DOT":"-0.00000138","MEAN_MOTION":"15.06397420","ECCENTRICITY":"0.00014520","MEAN_ANOMALY":"280.4426","ELEMENT_SET_NO":"999","FILE":"3288814","CLASSIFICATION_TYPE":"U","OBJECT_ID":"2020-057N","ARG_OF_PERICENTER":"79.6727","TLE_LINE2":"2 46129  53.0540 160.5969 0001452  79.6727 280.4426 15.06397420 80873","SITE":"AFETR","REF_FRAME":"TEME"},{"LAUNCH_DATE":"2020-08-18","PERIAPSIS":"546.228","EPHEMERIS_TYPE":"0","TLE_LINE1":"1 46130U 20057P   22031.83781024 -.00000494  00000-0 -14242-4 0  9995","REV_AT_EPOCH":"8211","BSTAR":"-0.00001424200000","APOAPSIS":"548.253","SEMIMAJOR_AXIS":"6925.376","RCS_SIZE":"LARGE","RA_OF_ASC_NODE":"160.7345","MEAN_MOTION_DDOT":"0.0000000000000","TIME_SYSTEM":"UTC","PERIOD":"95.593","GP_ID":"195051242","DECAY_DATE":null,"MEAN_MOTION":"15.06391110","ECCENTRICITY":"0.00014620","EPOCH":"2022-01-31T20:06:26.804736","INCLINATION":"53.0541","MEAN_ELEMENT_THEORY":"SGP4","MEAN_MOTION_DOT":"-0.00000494","OBJECT_TYPE":"PAYLOAD","COUNTRY_CODE":"US","CENTER_NAME":"EARTH","OBJECT_NAME":"STARLINK-1624","NORAD_CAT_ID":"46130","SITE":"AFETR","TLE_LINE2":"2 46130  53.0541 160.7345 0001462  86.2144 273.9012 15.06391110 82111","REF_FRAME":"TEME","ARG_OF_PERICENTER":"86.2144","OBJECT_ID":"2020-057P","ELEMENT_SET_NO":"999","CLASSIFICATION_TYPE":"U","FILE":"3288814","MEAN_ANOMALY":"273.9012"},{"DECAY_DATE":null,"GP_ID":"195050993","TIME_SYSTEM":"UTC","PERIOD":"95.592","MEAN_MOTION_DDOT":"0.0000000000000","RA_OF_ASC_NODE":"180.6892","RCS_SIZE":"LARGE","SEMIMAJOR_AXIS":"6925.348","APOAPSIS":"548.433","BSTAR":"0.00001016200000","REV_AT_EPOCH":"8184","EPHEMERIS_TYPE":"0","TLE_LINE1":"1 46131U 20057Q   22031.85071402 -.00000130  00000-0  10162-4 0  9993","PERIAPSIS":"545.992","LAUNCH_DATE":"2020-08-18","MEAN_ANOMALY":"274.9509","CLASSIFICATION_TYPE":"U","FILE":"3288814","ELEMENT_SET_NO":"999","ARG_OF_PERICENTER":"85.1681","OBJECT_ID":"2020-057Q","REF_FRAME":"TEME","SITE":"AFETR","TLE_LINE2":"2 46131  53.0537 180.6892 0001762  85.1681 274.9509 15.06400321 81848","NORAD_CAT_ID":"46131","CENTER_NAME":"EARTH","OBJECT_NAME":"STARLINK-1625","OBJECT_TYPE":"PAYLOAD","COUNTRY_CODE":"US","MEAN_MOTION_DOT":"-0.00000130","EPOCH":"2022-01-31T20:25:01.691328","INCLINATION":"53.0537","MEAN_ELEMENT_THEORY":"SGP4","ECCENTRICITY":"0.00017620","MEAN_MOTION":"15.06400321"},{"OBJECT_ID":"2020-057R","ARG_OF_PERICENTER":"69.4019","TLE_LINE2":"2 46132  53.0541 200.8080 0001769  69.4019 290.7159 15.06402561 81569","SITE":"AFETR","REF_FRAME":"TEME","MEAN_ANOMALY":"290.7159","ELEMENT_SET_NO":"999","FILE":"3288814","CLASSIFICATION_TYPE":"U","INCLINATION":"53.0541","MEAN_ELEMENT_THEORY":"SGP4","EPOCH":"2022-01-31T19:45:13.028544","MEAN_MOTION_DOT":"-0.00000035","MEAN_MOTION":"15.06402561","ECCENTRICITY":"0.00017690","OBJECT_NAME":"STARLINK-1630","CENTER_NAME":"EARTH","NORAD_CAT_ID":"46132","COUNTRY_CODE":"US","OBJECT_TYPE":"PAYLOAD","RA_OF_ASC_NODE":"200.8080","MEAN_MOTION_DDOT":"0.0000000000000","RCS_SIZE":"LARGE","DECAY_DATE":null,"GP_ID":"195052244","TIME_SYSTEM":"UTC","PERIOD":"95.592","TLE_LINE1":"1 46132U 20057R   22031.82306746 -.00000035  00000-0  16524-4 0  9995","EPHEMERIS_TYPE":"0","REV_AT_EPOCH":"8156","LAUNCH_DATE":"2020-08-18","PERIAPSIS":"545.981","SEMIMAJOR_AXIS":"6925.341","BSTAR":"0.00001652400000","APOAPSIS":"548.431"},{"SEMIMAJOR_AXIS":"6925.304","BSTAR":"0.00012102000000","APOAPSIS":"548.146","EPHEMERIS_TYPE":"0","TLE_LINE1":"1 46133U 20057S   22031.82306196  .00001522  00000-0  12102-3 0  9993","REV_AT_EPOCH":"8211","LAUNCH_DATE":"2020-08-18","PERIAPSIS":"546.191","DECAY_DATE":null,"GP_ID":"195052492","TIME_SYSTEM":"UTC","PERIOD":"95.591","RA_OF_ASC_NODE":"160.7953","MEAN_MOTION_DDOT":"0.0000000000000","RCS_SIZE":"LARGE","CENTER_NAME":"EARTH","OBJECT_NAME":"STARLINK-1637","NORAD_CAT_ID":"46133","OBJECT_TYPE":"PAYLOAD","COUNTRY_CODE":"US","EPOCH":"2022-01-31T19:45:12.553344","MEAN_ELEMENT_THEORY":"SGP4","INCLINATION":"53.0523","MEAN_MOTION_DOT":"0.00001522","MEAN_MOTION":"15.06414665","ECCENTRICITY":"0.00014110","MEAN_ANOMALY":"281.5389","ELEMENT_SET_NO":"999","CLASSIFICATION_TYPE":"U","FILE":"3288814","ARG_OF_PERICENTER":"78.5758","OBJECT_ID":"2020-057S","SITE":"AFETR","TLE_LINE2":"2 46133  53.0523 160.7953 0001411  78.5758 281.5389 15.06414665 82111","REF_FRAME":"TEME"},{"RA_OF_ASC_NODE":"161.0809","MEAN_MOTION_DDOT":"0.0000000000000","RCS_SIZE":"LARGE","DECAY_DATE":null,"GP_ID":"195050743","TIME_SYSTEM":"UTC","PERIOD":"95.592","TLE_LINE1":"1 46134U 20057T   22031.76039889  .00001062  00000-0  90150-4 0  9998","EPHEMERIS_TYPE":"0","REV_AT_EPOCH":"8085","LAUNCH_DATE":"2020-08-18","PERIAPSIS":"546.074","SEMIMAJOR_AXIS":"6925.328","BSTAR":"0.00009015000000","APOAPSIS":"548.311","OBJECT_ID":"2020-057T","ARG_OF_PERICENTER":"91.7738","TLE_LINE2":"2 46134  53.0532 161.0809 0001615  91.7738 268.3435 15.06406857 80855","SITE":"AFETR","REF_FRAME":"TEME","MEAN_ANOMALY":"268.3435","ELEMENT_SET_NO":"999","FILE":"3288814","CLASSIFICATION_TYPE":"U","INCLINATION":"53.0532","MEAN_ELEMENT_THEORY":"SGP4","EPOCH":"2022-01-31T18:14:58.464096","MEAN_MOTION_DOT":"0.00001062","MEAN_MOTION":"15.06406857","ECCENTRICITY":"0.00016150","OBJECT_NAME":"STARLINK-1638","CENTER_NAME":"EARTH","NORAD_CAT_ID":"46134","COUNTRY_CODE":"US","OBJECT_TYPE":"PAYLOAD"},{"TIME_SYSTEM":"UTC","PERIOD":"95.593","DECAY_DATE":null,"GP_ID":"195051493","RCS_SIZE":"LARGE","MEAN_MOTION_DDOT":"0.0000000000000","RA_OF_ASC_NODE":"161.0162","APOAPSIS":"548.414","BSTAR":"0.00006043800000","SEMIMAJOR_AXIS":"6925.369","PERIAPSIS":"546.054","LAUNCH_DATE":"2020-08-18","REV_AT_EPOCH":"8085","TLE_LINE1":"1 46135U 20057U   22031.77515554  .00000619  00000-0  60438-4 0  9991","EPHEMERIS_TYPE":"0","FILE":"3288814","CLASSIFICATION_TYPE":"U","ELEMENT_SET_NO":"999","MEAN_ANOMALY":"272.5687","REF_FRAME":"TEME","TLE_LINE2":"2 46135  53.0541 161.0162 0001704  87.5497 272.5687 15.06393425 80854","SITE":"AFETR","OBJECT_ID":"2020-057U","ARG_OF_PERICENTER":"87.5497","COUNTRY_CODE":"US","OBJECT_TYPE":"PAYLOAD","NORAD_CAT_ID":"46135","OBJECT_NAME":"STARLINK-1639","CENTER_NAME":"EARTH","ECCENTRICITY":"0.00017040","MEAN_MOTION":"15.06393425","MEAN_MOTION_DOT":"0.00000619","MEAN_ELEMENT_THEORY":"SGP4","INCLINATION":"53.0541","EPOCH":"2022-01-31T18:36:13.438656"},{"OBJECT_ID":"2020-057V","ARG_OF_PERICENTER":"80.8388","TLE_LINE2":"2 46136  53.0523 191.0964 0001883  80.8388 279.2813 15.06410463 80432","SITE":"AFETR","REF_FRAME":"TEME","MEAN_ANOMALY":"279.2813","ELEMENT_SET_NO":"999","FILE":"3288814","CLASSIFICATION_TYPE":"U","INCLINATION":"53.0523","MEAN_ELEMENT_THEORY":"SGP4","EPOCH":"2022-01-31T18:11:00.133152","MEAN_MOTION_DOT":"0.00004162","MEAN_MOTION":"15.06410463","ECCENTRICITY":"0.00018830","OBJECT_NAME":"STARLINK-1643","CENTER_NAME":"EARTH","NORAD_CAT_ID":"46136","COUNTRY_CODE":"US","OBJECT_TYPE":"PAYLOAD","RA_OF_ASC_NODE":"191.0964","MEAN_MOTION_DDOT":"0.0000000000000","RCS_SIZE":"LARGE","GP_ID":"195051745","DECAY_DATE":null,"TIME_SYSTEM":"UTC","PERIOD":"95.591","TLE_LINE1":"1 46136U 20057V   22031.75764043  .00004162  00000-0  29804-3 0  9997","EPHEMERIS_TYPE":"0","REV_AT_EPOCH":"8043","LAUNCH_DATE":"2020-08-18","PERIAPSIS":"545.877","SEMIMAJOR_AXIS":"6925.316","BSTAR":"0.00029804000000","APOAPSIS":"548.486"},{"SEMIMAJOR_AXIS":"6925.346","BSTAR":"0.00010988000000","APOAPSIS":"548.557","TLE_LINE1":"1 46137U 20057W   22031.84333909  .00001355  00000-0  10988-3 0  9995","EPHEMERIS_TYPE":"0","REV_AT_EPOCH":"8058","LAUNCH_DATE":"2020-08-18","PERIAPSIS":"545.865","GP_ID":"195051993","DECAY_DATE":null,"PERIOD":"95.592","TIME_SYSTEM":"UTC","RA_OF_ASC_NODE":"180.7019","MEAN_MOTION_DDOT":"0.0000000000000","RCS_SIZE":"LARGE","OBJECT_NAME":"STARLINK-1586","CENTER_NAME":"EARTH","NORAD_CAT_ID":"46137","COUNTRY_CODE":"US","OBJECT_TYPE":"PAYLOAD","INCLINATION":"53.0553","MEAN_ELEMENT_THEORY":"SGP4","EPOCH":"2022-01-31T20:14:24.497376","MEAN_MOTION_DOT":"0.00001355","MEAN_MOTION":"15.06400825","ECCENTRICITY":"0.00019440","MEAN_ANOMALY":"276.6061","ELEMENT_SET_NO":"999","FILE":"3288814","CLASSIFICATION_TYPE":"U","OBJECT_ID":"2020-057W","ARG_OF_PERICENTER":"83.5150","TLE_LINE2":"2 46137  53.0553 180.7019 0001944  83.5150 276.6061 15.06400825 80580","SITE":"AFETR","REF_FRAME":"TEME"}];
